line1,line2,validFromUtcTime
1 00000U 00000E   26001.00000000  .00000000  00000-0  27772-4 0    01,2 00000  88.8750  60.3318 0010155 270.5161 239.5585 13.55333256    06,2026-01-01T00:00:00Z
1 00000U 00000E   26002.00000000  .00000000  00000-0  27772-4 0    02,2 00000  88.8753  60.2175 0010218 267.3436  79.0423 13.55350958    04,2026-01-02T00:00:00Z
